{
  "type": "FeatureCollection",
  "features": [
    {
      "type": "Feature",
      "properties": {
        "feature_role": "sar_detection",
        "detection_time_utc": "2026-08-14T06:32:00",
        "source": "Sentinel-1 SAR (synthetic)",
        "polarization": "VV",
        "area_km2": 9.8,
        "confidence": 0.87,
        "estimated_thickness_class": "sheen-to-medium"
      },
      "geometry": {
        "type": "Polygon",
        "coordinates": [
          [
            [
              71.62536,
              19.48114
            ],
            [
              71.63316,
              19.48592
            ],
            [
              71.63993,
              19.4823
            ],
            [
              71.64086,
              19.47311
            ],
            [
              71.64875,
              19.47124
            ],
            [
              71.64766,
              19.46414
            ],
            [
              71.646,
              19.45851
            ],
            [
              71.64015,
              19.45477
            ],
            [
              71.63821,
              19.45151
            ],
            [
              71.63645,
              19.44805
            ],
            [
              71.63153,
              19.44844
            ],
            [
              71.62899,
              19.44574
            ],
            [
              71.62536,
              19.44669
            ],
            [
              71.62226,
              19.44757
            ],
            [
              71.61906,
              19.44821
            ],
            [
              71.61567,
              19.44936
            ],
            [
              71.61252,
              19.45151
            ],
            [
              71.60819,
              19.45417
            ],
            [
              71.60427,
              19.45851
            ],
            [
              71.60194,
              19.46442
            ],
            [
              71.60519,
              19.46949
            ],
            [
              71.60936,
              19.47359
            ],
            [
              71.61183,
              19.4806
            ],
            [
              71.61783,
              19.48503
            ],
            [
              71.62536,
              19.48114
            ]
          ]
        ]
      }
    },
    {
      "type": "Feature",
      "properties": {
        "feature_role": "hindcast_origin_estimate",
        "estimated_origin_time_utc": "2026-08-13T21:17:00",
        "method": "backward particle drift (synthetic)",
        "uncertainty_radius_km": 1.2
      },
      "geometry": {
        "type": "Polygon",
        "coordinates": [
          [
            [
              71.58,
              19.42504
            ],
            [
              71.58142,
              19.42501
            ],
            [
              71.58228,
              19.42372
            ],
            [
              71.58297,
              19.4228
            ],
            [
              71.58381,
              19.42208
            ],
            [
              71.58418,
              19.42106
            ],
            [
              71.58345,
              19.42
            ],
            [
              71.58367,
              19.41907
            ],
            [
              71.58271,
              19.41852
            ],
            [
              71.58185,
              19.41826
            ],
            [
              71.58112,
              19.41817
            ],
            [
              71.58068,
              19.41762
            ],
            [
              71.58,
              19.41768
            ],
            [
              71.57936,
              19.41775
            ],
            [
              71.57883,
              19.4181
            ],
            [
              71.57813,
              19.41824
            ],
            [
              71.57762,
              19.41871
            ],
            [
              71.57663,
              19.41915
            ],
            [
              71.57565,
              19.42
            ],
            [
              71.5755,
              19.42114
            ],
            [
              71.57586,
              19.42225
            ],
            [
              71.57636,
              19.42344
            ],
            [
              71.57761,
              19.4239
            ],
            [
              71.57867,
              19.42469
            ],
            [
              71.58,
              19.42504
            ]
          ]
        ]
      }
    },
    {
      "type": "Feature",
      "properties": {
        "feature_role": "origin_point_estimate"
      },
      "geometry": {
        "type": "Point",
        "coordinates": [
          71.58,
          19.42
        ]
      }
    }
  ]
}